IRIDIUM 116             
1 43072U 17083C   25252.88508810  .00000118  00000+0  35037-4 0  9990
2 43072  86.3905  79.1831 0002359  85.4193 274.7272 14.34215967403995
IRIDIUM 130             
1 43073U 17083D   25252.92313864  .00000034  00000+0  49371-5 0  9993
2 43073  86.3913  79.4156 0002525  90.1302 270.0183 14.34217587403943
IRIDIUM 151             
1 43074U 17083E   25252.89776798 -.00000003  00000+0 -80506-5 0  9992
2 43074  86.3905  79.2293 0002194  85.0831 275.0615 14.34217323403962
IRIDIUM 134             
1 43075U 17083F   25252.58698141  .00000011  00000+0 -30407-5 0  9997
2 43075  86.3908  79.3638 0002438  90.6340 269.5135 14.34217467403883
IRIDIUM 137             
1 43076U 17083G   25252.87874069  .00000012  00000+0 -28330-5 0  9998
2 43076  86.3910  79.3287 0002400  74.1490 285.9970 14.34217658403992
IRIDIUM 141             
1 43077U 17083H   25252.52355432  .00000009  00000+0 -37844-5 0  9995
2 43077  86.3903  79.3239 0001895  90.2536 269.8877 14.34217478403941
IRIDIUM 153             
1 43078U 17083J   25252.89434459  .00000099  00000+0  28157-4 0  9997
2 43078  86.3943  47.6244 0001765 101.8348 258.3046 14.34216774405105
IRIDIUM 131             
1 43079U 17083K   25252.92948009  .00000018  00000+0 -50065-6 0  9990
2 43079  86.3911  79.3215 0001980  87.4386 272.7036 14.34217642403934
